DIDO-2                  
1 42000U 17008BE  23363.12317009  .00042324  00000+0  70192-3 0  9998
2 42000  97.1727  57.2410 0005755  55.2817 304.8977 15.52003755382037
AALTO-1                 
1 42775U 17036L   23362.85402718  .00031549  00000+0  64135-3 0  9996
2 42775  97.1299  28.3257 0009376 111.9897 248.2350 15.46202693362487
URSA MAIOR              
1 42776U 17036M   23362.81170119  .00046223  00000+0  80177-3 0  9999
2 42776  97.1292  30.4669 0008667 104.5462 255.6752 15.50696698362609
DIAMOND RED             
1 42783U 17036U   23362.77978038  .00067799  00000+0  88829-3 0  9991
2 42783  97.1221  34.9958 0006292 105.1066 255.0887 15.58342307362895
PEGASUS                 
1 42784U 17036V   23363.06452464  .00750294  26447-3  14305-2 0  9998
2 42784  97.0982  42.0390 0002104  87.7960 272.3560 16.00683940363402
DIAMOND GREEN           
1 42785U 17036W   23362.90462090  .00085771  00000+0  95524-3 0  9994
2 42785  97.1193  35.8858 0006003 101.1900 259.0034 15.62546437363037
DIAMOND BLUE            
1 42786U 17036X   23362.81569910  .00078097  00000+0  95621-3 0  9995
2 42786  97.1227  35.4465 0006558  98.1451 262.0550 15.60098391362997
CICERO 6                
1 42793U 17036AE  23362.86209169  .00046821  00000+0  74760-3 0  9996
2 42793  97.1206  34.3204 0007013 100.7451 259.4592 15.53031784362955
CORVUS BC2              
1 42846U 17042X   23362.52073710  .00003466  00000+0  31312-3 0  9990
2 42846  97.3712 192.3799 0007506 281.3037  78.7341 14.96062304351764
CORVUS BC1              
1 42847U 17042Y   23362.49846539  .00004196  00000+0  37680-3 0  9999
2 42847  97.3718 192.7350 0006651 280.8093  79.2381 14.96195808351771
MIRATA                  
1 43015U 17073C   23363.15294503  .00014339  00000+0  78940-3 0  9997
2 43015  97.6055 245.7830 0193090 121.0605 240.9732 14.99528548330630
MAKERSAT 0              
1 43016U 17073D   23362.60003181  .00008847  00000+0  54900-3 0  9994
2 43016  97.6046 241.7712 0212358 137.4299 224.3605 14.93036388330269
CORVUS BC3              
1 43118U 18004H   23362.92676933  .00047250  00000+0  76506-3 0  9995
2 43118  97.3066  78.5138 0005454 139.9277 220.2379 15.52652905332090
GOMX-4B                 
1 43196U 18015E   23362.93613757  .00031064  00000+0  63080-3 0  9998
2 43196  97.5937 161.1643 0010445 222.9722 137.0711 15.46231538328930
GOMX-4A                 
1 43197U 18015F   23363.08442345  .00035296  00000+0  60328-3 0  9992
2 43197  97.5907 164.6134 0009361 215.0276 145.0361 15.51165183329189
CUBEBEL-1 (BSUSAT-1)    
1 43666U 18083E   23363.14269996  .00111162  00000+0  11858-2 0  9994
2 43666  97.3510  38.3897 0006454 114.4714 245.7218 15.63564477287353
CICERO 10               
1 43690U 18088A   23362.85773237  .00041690  00000+0  78069-3 0  9997
2 43690  85.0265 299.8379 0006097 184.8777 175.2421 15.48492472285486
PROXIMA I               
1 43694U 18088E   23363.18509967  .00057113  00000+0  83771-3 0  9998
2 43694  85.0180 294.2015 0010147 144.3723 215.8217 15.55256809285894
PROXIMA II              
1 43696U 18088G   23362.83793676  .00060438  00000+0  89896-3 0  9991
2 43696  85.0184 294.5439 0010043 145.9109 214.2798 15.54866246285835
SIRION PATHFINDER-2     
1 43759U 18099B   23363.10233238  .00004661  00000+0  37344-3 0  9994
2 43759  97.5444  59.1391 0013691 146.6410 213.5679 15.00539289276834
CORVUS BC4              
1 43767U 18099K   23363.13287747  .00003475  00000+0  28354-3 0  9993
2 43767  97.5423  56.8566 0009537 193.9286 166.1676 15.00044168276734
MOVE-II                 
1 43780U 18099Y   23362.69954854  .00014066  00000+0  89060-3 0  9997
2 43780  97.5475  63.0126 0007121 199.2740 160.8220 15.09063720277011
SPACEBEE-7              
1 43816U 18099BL  23362.71000543  .00010646  00000+0  72205-3 0  9990
2 43816  97.5754  63.9792 0011672 149.8886 210.3015 15.06558635276559
SPACEBEE-5              
1 43817U 18099BM  23362.83680773  .00148545  00000+0  28739-2 0  9995
2 43817  97.5650  78.2749 0000362 104.0612 256.0677 15.47190264277423
SPACEBEE-6              
1 43818U 18099BN  23362.91355895  .00018207  00000+0  10322-2 0  9999
2 43818  97.5669  67.4248 0010719 160.2000 199.9649 15.12990698276930
SHIELDS 1               
1 43850U 18104B   23362.61122996  .00010001  00000+0  31534-3 0  9996
2 43850  85.0241  39.0660 0011898   7.2199 352.9217 15.32655907279843
STF-1                   
1 43852U 18104D   23362.58522326  .00146712  00000+0  11405-2 0  9998
2 43852  85.0102  32.0759 0003167  16.4053 343.7317 15.71318026280576
ZACUBE-2                
1 43907U 18111AH  23363.11000743  .00067525  00000+0  86477-3 0  9997
2 43907  97.1004 239.7528 0008281 205.7932 154.2913 15.58933469279308
LUME 1                  
1 43908U 18111AJ  23362.90742265  .00174893  00000+0  10647-2 0  9998
2 43908  97.1004 245.9382 0005685 159.4593 200.6903 15.76935332279697
SONATE                  
1 44400U 19038Q   23362.94027439  .00014065  00000+0  53399-3 0  9994
2 44400  97.7031 345.5571 0018367 358.1519   1.9648 15.26793834247894
LUCKY-7                 
1 44406U 19038W   23362.93084808  .00022407  00000+0  72422-3 0  9999
2 44406  97.6974 347.8703 0015859 350.1117   9.9809 15.31982652248056
BEESAT 9                
1 44412U 19038AC  23362.94475013  .00051725  00000+0  10709-2 0  9993
2 44412  97.6861 352.0990 0010100 345.3860  14.7095 15.45556137248061
JAISAT-1                
1 44419U 19038F   23362.93585486  .00049406  00000+0  10255-2 0  9994
2 44419  97.6836 353.2066 0009493 342.4881  17.6039 15.45498912248449
DUCHIFAT-3              
1 44854U 19089C   23363.10645574  .00010640  00000+0  63369-3 0  9991
2 44854  36.9613   2.7628 0007334 143.0613 217.0639 15.10669552222278
M2 PATHFINDER           
1 45727U 20037E   23362.93018492  .00002592  00000+0  23844-3 0  9990
2 45727  97.7633 175.5731 0011441 342.0128  18.0686 14.95596768190337
NETSAT-4                
1 46504U 20068U   23362.84743749  .00007913  00000+0  47670-3 0  9993
2 46504  97.7874 311.1773 0008937 219.1368 140.9215 15.11040681178266
NETSAT-3                
1 46505U 20068V   23362.84704227  .00007850  00000+0  47762-3 0  9994
2 46505  97.7848 310.8674 0007888 229.2672 130.7873 15.10688090178266
NETSAT-1                
1 46506U 20068W   23362.82499271  .00007229  00000+0  45058-3 0  9999
2 46506  97.7861 310.6005 0006617 242.0704 117.9855 15.09846519178241
NETSAT-2                
1 46507U 20068X   23362.85490815  .00008332  00000+0  50309-3 0  9999
2 46507  97.7862 310.8737 0005550 247.5759 112.4882 15.10959709178217
WILDTRACKCUBE-SIMBA     
1 47941U 21022K   23363.13000653  .00010874  00000+0  56169-3 0  9996
2 47941  97.4789 256.9211 0018460  26.8178 333.4005 15.16321372152500
BEESAT-6                
1 47957U 21022AB  23362.67583299  .00042752  00000+0  13732-2 0  9991
2 47957  97.4672 261.2290 0013275  21.9329 338.2478 15.32077050152569
SMOG-1                  
1 47964U 21022AJ  23362.90320999  .00041519  00000+0  12726-2 0  9993
2 47964  97.4818 264.1791 0011666   3.5042 356.6280 15.33598943151774
BCCSAT-1                
1 48041U 21022AK  23363.06758174  .00031282  00000+0  11071-2 0  9996
2 48041  97.4812 262.3280 0010537   6.6249 353.5128 15.29035893151645
BEESAT-5                
1 48083U 21022AM  23362.71480213  .00049273  00000+0  14463-2 0  9996
2 48083  97.4594 261.7929 0012755  16.2123 343.9526 15.34914254151764
BEESAT-7                
1 48084U 21022AN  23362.19838545  .00045405  00000+0  14435-2 0  9996
2 48084  97.4793 261.0598 0012566  14.5624 345.5977 15.32401113151231
BEESAT-8                
1 48085U 21022AP  23362.66878764  .00021877  00000+0  94874-3 0  9999
2 48085  97.4857 259.3542 0016289  21.6750 338.5172 15.22254526151701
LEDSAT                  
1 49069U 21073D   23363.13453409  .00012132  00000+0  58192-3 0  9993
2 49069  97.4615  71.0521 0022108 160.2951 199.9142 15.18819237130447
